H1 CPF 01  gfz 2021 01 02 01  5021 terrasarx 
H2 0702601  6201 31698    2021 01 02 00 59 42 2021 01 07 00 00 42   120 1 1  0 0 0
H9
10 0 59218  62622.000000  0   -1132047.926  -1075707.421   6698560.318
10 0 59218  62742.000000  0   -2018515.090  -1172995.774   6470366.489
10 0 59218  62862.000000  0   -2871149.259  -1234596.492   6128456.841
10 0 59218  62982.000000  0   -3674427.090  -1260155.654   5678804.908
10 0 59218  63102.000000  0   -4413675.229  -1250210.626   5129278.187
10 0 59218  63222.000000  0   -5075344.573  -1206165.487   4489506.291
10 0 59218  63342.000000  0   -5647266.488  -1130246.205   3770716.284
10 0 59218  63462.000000  0   -6118884.687  -1025436.756   2985538.000
10 0 59218  63582.000000  0   -6481459.171   -895397.802   2147784.015
10 0 59218  63702.000000  0   -6728239.635   -744369.612   1272204.931
10 0 59218  63822.000000  0   -6854599.258   -577061.390    374222.815
10 0 59218  63942.000000  0   -6858125.504   -398529.758   -530348.542
10 0 59218  64062.000000  0   -6738666.874   -214049.332  -1425591.238
10 0 59218  64182.000000  0   -6498332.822    -28978.906  -2295771.743
10 0 59218  64302.000000  0   -6141450.619    151372.564  -3125623.354
10 0 59218  64422.000000  0   -5674477.700    321878.231  -3900620.264
10 0 59218  64542.000000  0   -5105871.345    477719.756  -4607232.885
10 0 59218  64662.000000  0   -4445922.203    614504.415  -5233160.953
10 0 59218  64782.000000  0   -3706555.759    728371.032  -5767540.415
10 0 59218  64902.000000  0   -2901107.237    816081.356  -6201122.329
10 0 59218  65022.000000  0   -2044075.282    875095.774  -6526420.624
10 0 59218  65142.000000  0   -1150859.673    903633.067  -6737830.606
10 0 59218  65262.000000  0    -237486.131    900712.734  -6831714.681
10 0 59218  65382.000000  0     679674.590    866178.989  -6806456.974
10 0 59218  65502.000000  0    1584192.073    800706.429  -6662490.431
10 0 59218  65622.000000  0    2459865.229    705787.434  -6402291.170
10 0 59218  65742.000000  0    3291006.990    583701.546  -6030340.200
10 0 59218  65862.000000  0    4062721.780    437466.926  -5553053.385
10 0 59218  65982.000000  0    4761171.284    270773.951  -4978681.492
10 0 59218  66102.000000  0    5373826.635     87903.375  -4317179.553
10 0 59218  66222.000000  0    5889700.917   -106371.017  -3580044.256
10 0 59218  66342.000000  0    6299555.849   -306892.955  -2780122.657
10 0 59218  66462.000000  0    6596080.022   -508245.580  -1931394.450
10 0 59218  66582.000000  0    6774032.472   -704881.707  -1048728.672
10 0 59218  66702.000000  0    6830346.583   -891259.000   -147620.912
10 0 59218  66822.000000  0    6764192.224  -1061977.377    756083.781
10 0 59218  66942.000000  0    6576993.135  -1211915.016   1646477.476
10 0 59218  67062.000000  0    6272399.563  -1336359.628   2507878.221
10 0 59218  67182.000000  0    5856214.187  -1431130.399   3325116.048
10 0 59218  67302.000000  0    5336275.460  -1492688.298   4083806.452
10 0 59218  67422.000000  0    4722301.482  -1518232.769   4770607.965
10 0 59218  67542.000000  0    4025698.600  -1505780.526   5373457.773
10 0 59218  67662.000000  0    3259340.468  -1454225.619   5881782.498
10 0 59218  67782.000000  0    2437321.017  -1363380.459   6286679.687
10 0 59218  67902.000000  0    1574689.348  -1233996.600   6581067.702
10 0 59218  68022.000000  0     687169.894  -1067765.066   6759804.309
10 0 59218  68142.000000  0    -209126.838   -867295.171   6819770.611
10 0 59218  68262.000000  0   -1097996.456   -636073.407   6759920.668
10 0 59218  68382.000000  0   -1963432.051   -378402.981   6581298.200
10 0 59218  68502.000000  0   -2789910.852    -99324.225   6287019.610
10 0 59218  68622.000000  0   -3562672.469    195482.604   5882224.224
10 0 59218  68742.000000  0   -4267985.278    499810.485   5373990.692
10 0 59218  68862.000000  0   -4893395.667    807053.043   4771219.151
10 0 59218  68982.000000  0   -5427955.549   1110344.098   4084481.101
10 0 59218  69102.000000  0   -5862422.594   1402706.703   3325837.252
10 0 59218  69222.000000  0   -6189428.917   1677208.319   2508627.708
10 0 59218  69342.000000  0   -6403615.233   1927118.511   1647236.602
10 0 59218  69462.000000  0   -6501726.861   2146065.713    756835.013
10 0 59218  69582.000000  0   -6482667.246   2328189.199   -146893.917
10 0 59218  69702.000000  0   -6347507.309   2468281.062  -1048040.022
10 0 59218  69822.000000  0   -6099451.117   2561915.409  -1930754.923
10 0 59218  69942.000000  0   -5743759.317   2605562.102  -2779539.107
10 0 59218  70062.000000  0   -5287630.363   2596681.233  -3579520.930
10 0 59218  70182.000000  0   -4740044.750   2533795.518  -4316719.560
10 0 59218  70302.000000  0   -4111577.505   2416540.228  -4978287.710
10 0 59218  70422.000000  0   -3414183.546   2245689.842  -5552729.390
10 0 59218  70542.000000  0   -2660963.175   2023161.742  -6030090.151
10 0 59218  70662.000000  0   -1865911.714   1751996.862  -6402119.947
10 0 59218  70782.000000  0   -1043656.607   1436317.304  -6662403.911
10 0 59218  70902.000000  0    -209190.819   1081262.768  -6806461.437
10 0 59218  71022.000000  0     622394.990    692907.241  -6831814.288
10 0 59218  71142.000000  0    1436178.135    278157.367  -6738026.415
10 0 59218  71262.000000  0    2217666.945   -155367.995  -6526710.915
10 0 59218  71382.000000  0    2953052.755   -599473.886  -6201504.829
10 0 59218  71502.000000  0    3629451.004  -1045539.737  -5768013.227
10 0 59218  71622.000000  0    4235125.278  -1484681.572  -5233721.747
10 0 59218  71742.000000  0    4759694.297  -1907925.391  -4607879.691
10 0 59218  71862.000000  0    5194316.066  -2306388.132  -3901350.641
10 0 59218  71982.000000  0    5531845.510  -2671461.904  -3126433.638
10 0 59218  72102.000000  0    5766962.549  -2994998.089  -2296655.771
10 0 59218  72222.000000  0    5896265.820  -3269486.968  -1426538.722
10 0 59218  72342.000000  0    5918329.854  -3488228.400   -531344.489
10 0 59218  72462.000000  0    5833723.666  -3645489.676    373196.395
10 0 59218  72582.000000  0    5644989.382  -3736645.933   1271167.656
10 0 59218  72702.000000  0    5356581.232  -3758299.798   2146756.978
10 0 59218  72822.000000  0    4974763.583  -3708374.310   2984543.865
10 0 59218  72942.000000  0    4507474.045  -3586179.339   3769778.169
10 0 59218  73062.000000  0    3964155.341  -3392448.896   4488644.900
10 0 59218  73182.000000  0    3355559.012  -3129350.303   5128511.050
10 0 59218  73302.000000  0    2693524.978  -2800462.536   5678147.278
10 0 59218  73422.000000  0    1990745.468  -2410725.865   6127921.846
10 0 59218  73542.000000  0    1260516.520  -1966364.964   6469964.168
10 0 59218  73662.000000  0     516483.242  -1474786.772   6698296.401
10 0 59218  73782.000000  0    -227616.550   -944454.599   6808931.865
10 0 59218  73902.000000  0    -958205.602   -384741.035   6799939.674
10 0 59218  74022.000000  0   -1662113.663    194237.556   6671475.943
10 0 59218  74142.000000  0   -2326813.890    781803.379   6425781.341
10 0 59218  74262.000000  0   -2940645.537   1366913.174   6067144.716
10 0 59218  74382.000000  0   -3493019.680   1938364.754   5601833.298
10 0 59218  74502.000000  0   -3974605.557   2485011.438   5037990.077
10 0 59218  74622.000000  0   -4377493.530   2995981.272   4385497.390
10 0 59218  74742.000000  0   -4695331.495   3460895.170   3655808.118
10 0 59218  74862.000000  0   -4923430.962   3870080.042   2861747.119
10 0 59218  74982.000000  0   -5058840.517   4214772.967   2017286.376
10 0 59218  75102.000000  0   -5100385.762   4487311.609   1137296.459
10 0 59218  75222.000000  0   -5048672.124   4681304.337    237277.934
10 0 59218  75342.000000  0   -4906051.914   4791775.034   -666919.059
10 0 59218  75462.000000  0   -4676556.598   4815281.638  -1559383.287
10 0 59218  75582.000000  0   -4365792.999   4750003.311  -2424432.301
10 0 59218  75702.000000  0   -3980809.275   4595792.946  -3246895.398
10 0 59218  75822.000000  0   -3529932.939   4354195.098  -4012383.988
10 0 59218  75942.000000  0   -3022586.468   4028430.058  -4707542.537
10 0 59218  76062.000000  0   -2469086.563   3623345.544  -5320276.210
10 0 59218  76182.000000  0   -1880432.502   3145339.028  -5839953.674
10 0 59218  76302.000000  0   -1268085.924   2602250.408  -6257582.831
10 0 59218  76422.000000  0    -643747.551   2003227.644  -6565955.149
10 0 59218  76542.000000  0     -19136.131   1358570.378  -6759758.313
10 0 59218  76662.000000  0     594226.616    679553.178  -6835658.135
10 0 59218  76782.000000  0    1185223.506    -21768.114  -6792350.912
10 0 59218  76902.000000  0    1743339.446   -732766.613  -6630582.815
10 0 59218  77022.000000  0    2258843.529  -1440465.973  -6353137.314
10 0 59218  77142.000000  0    2722955.864  -2131771.144  -5964792.728
10 0 59218  77262.000000  0    3127996.206  -2793705.136  -5472249.396
10 0 59218  77382.000000  0    3467513.812  -3413651.816  -4884026.239
10 0 59218  77502.000000  0    3736393.549  -3979597.453  -4210322.345
10 0 59218  77622.000000  0    3930935.906  -4480364.768  -3462850.257
10 0 59218  77742.000000  0    4048911.970  -4905838.115  -2654641.834
10 0 59218  77862.000000  0    4089590.904  -5247174.781  -1799826.477
10 0 59218  77982.000000  0    4053736.149  -5496995.514   -913384.490
10 0 59218  78102.000000  0    3943571.976  -5649548.657    -10881.699
10 0 59218  78222.000000  0    3762719.358  -5700843.926    891810.065
10 0 59218  78342.000000  0    3516103.635  -5648752.125   1778800.085
10 0 59218  78462.000000  0    3209835.164  -5493066.417   2634468.702
10 0 59218  78582.000000  0    2851065.265  -5235524.288   3443749.866
10 0 59218  78702.000000  0    2447823.454  -4879791.142   4192402.517
10 0 59218  78822.000000  0    2008839.786  -4431404.945   4867265.190
10 0 59218  78942.000000  0    1543355.933  -3897683.567   5456488.485
10 0 59218  79062.000000  0    1060930.325  -3287597.698   5949742.070
99
